TERRASAR-X              
1 31698U 07026A   26064.58090910  .00002326  00000+0  11390-3 0  9991
2 31698  97.4462  73.7620 0001776  81.3810 278.7626 15.19152752 37497
WORLDVIEW-1 (WV-1)      
1 32060U 07041A   26064.56697176  .00009947  00000+0  40792-3 0  9991
2 32060  97.3834 185.8075 0002965 148.0814 212.0604 15.24444787 27098
YAOGAN-3                
1 32289U 07055A   26064.74781459  .00001494  00000+0  15940-3 0  9993
2 32289  97.8272  95.6181 0001701  85.1922 274.9490 14.90335364990457
COSMO-SKYMED 2          
1 32376U 07059A   26064.80241808  .00000828  00000+0  11056-3 0  9994
2 32376  97.8861 249.8947 0001308  83.4483 276.6879 14.82160353986682
RADARSAT-2              
1 32382U 07061A   26064.83076049  .00000088  00000+0  50952-4 0  9997
2 32382  98.5820  73.2264 0001255  94.7529 265.3797 14.29964205951180
CARTOSAT-2A             
1 32783U 08021A   26064.74986815  .00000856  00000+0  12227-3 0  9995
2 32783  97.7782 116.9277 0013277  88.0064 272.2668 14.79091097963518
HUANJING 1A (HJ-1A)     
1 33320U 08041A   26064.79116340  .00002955  00000+0  36229-3 0  9998
2 33320  97.6628  54.6825 0020568 115.6283 244.7059 14.83705464943074
HUANJING 1B (HJ-1B)     
1 33321U 08041B   26064.78283139  .00001079  00000+0  13726-3 0  9992
2 33321  97.6472  58.1482 0036789 160.4737 199.7896 14.83088945943081
GEOEYE 1                
1 33331U 08042A   26064.72457103  .00000785  00000+0  15624-3 0  9994
2 33331  98.1213 139.9634 0004233  38.9862 321.1645 14.64761639935008
THEOS                   
1 33396U 08049A   26064.75053601 -.00000133  00000+0 -42489-4 0  9999
2 33396  98.5709 125.3348 0001055  88.2677 271.8621 14.20115661903285
COSMO-SKYMED 3          
1 33412U 08054A   26064.73367841  .00004609  00000+0  31822-3 0  9994
2 33412  97.8421 281.5529 0014579 256.5272 103.4330 15.06203864941365
YAOGAN-4                
1 33446U 08061A   26064.73906095  .00002020  00000+0  25484-3 0  9991
2 33446  97.9247 359.0702 0015548  51.2045 309.0555 14.82964247930338
GOSAT (IBUKI)           
1 33492U 09002A   26064.77440053  .00000431  00000+0  84413-4 0  9991
2 33492  98.0764 177.2218 0001382  84.0208 276.1154 14.67546687916298
DEIMOS-1                
1 35681U 09041A   26064.74611443  .00001202  00000+0  18526-3 0  9994
2 35681  97.7246 226.5367 0002066 123.3932 236.7475 14.75108707891639
DUBAISAT-1              
1 35682U 09041B   26064.29897760  .00001756  00000+0  26898-3 0  9998
2 35682  97.9866 198.8101 0011325  49.4275 310.7918 14.74891955889784
OCEANSAT-2              
1 35931U 09051A   26064.75879575  .00000084  00000+0  82917-4 0  9999
2 35931  98.2273  61.9663 0017066 162.9543 197.2200 13.99636288864863
WORLDVIEW-2 (WV-2)      
1 35946U 09055A   26064.76046371  .00000223  00000+0  88134-4 0  9992
2 35946  98.4700 139.6820 0004838 155.5533 204.5885 14.37908709860785
