[{"OBJECT_NAME":"TERRASAR-X","OBJECT_ID":"2007-026A","EPOCH":"2026-03-05T13:56:30.546240","MEAN_MOTION":15.19152752,"ECCENTRICITY":0.0001776,"INCLINATION":97.4462,"RA_OF_ASC_NODE":73.762,"ARG_OF_PERICENTER":81.381,"MEAN_ANOMALY":278.7626,"EPHEMERIS_TYPE":0,"CLASSIFICATION_TYPE":"U","NORAD_CAT_ID":31698,"ELEMENT_SET_NO":999,"REV_AT_EPOCH":3749,"BSTAR":0.0001139,"MEAN_MOTION_DOT":2.326e-5,"MEAN_MOTION_DDOT":0},{"OBJECT_NAME":"WORLDVIEW-1 (WV-1)","OBJECT_ID":"2007-041A","EPOCH":"2026-03-05T13:36:26.360064","MEAN_MOTION":15.24444787,"ECCENTRICITY":0.0002965,"INCLINATION":97.3834,"RA_OF_ASC_NODE":185.8075,"ARG_OF_PERICENTER":148.0814,"MEAN_ANOMALY":212.0604,"EPHEMERIS_TYPE":0,"CLASSIFICATION_TYPE":"U","NORAD_CAT_ID":32060,"ELEMENT_SET_NO":999,"REV_AT_EPOCH":2709,"BSTAR":0.00040792,"MEAN_MOTION_DOT":9.947e-5,"MEAN_MOTION_DDOT":0},{"OBJECT_NAME":"YAOGAN-3","OBJECT_ID":"2007-055A","EPOCH":"2026-03-05T17:56:51.180576","MEAN_MOTION":14.90335364,"ECCENTRICITY":0.0001701,"INCLINATION":97.8272,"RA_OF_ASC_NODE":95.6181,"ARG_OF_PERICENTER":85.1922,"MEAN_ANOMALY":274.949,"EPHEMERIS_TYPE":0,"CLASSIFICATION_TYPE":"U","NORAD_CAT_ID":32289,"ELEMENT_SET_NO":999,"REV_AT_EPOCH":99045,"BSTAR":0.0001594,"MEAN_MOTION_DOT":1.494e-5,"MEAN_MOTION_DDOT":0},{"OBJECT_NAME":"COSMO-SKYMED 2","OBJECT_ID":"2007-059A","EPOCH":"2026-03-05T19:15:28.922112","MEAN_MOTION":14.82160353,"ECCENTRICITY":0.0001308,"INCLINATION":97.8861,"RA_OF_ASC_NODE":249.8947,"ARG_OF_PERICENTER":83.4483,"MEAN_ANOMALY":276.6879,"EPHEMERIS_TYPE":0,"CLASSIFICATION_TYPE":"U","NORAD_CAT_ID":32376,"ELEMENT_SET_NO":999,"REV_AT_EPOCH":98668,"BSTAR":0.00011056,"MEAN_MOTION_DOT":8.28e-6,"MEAN_MOTION_DDOT":0},{"OBJECT_NAME":"RADARSAT-2","OBJECT_ID":"2007-061A","EPOCH":"2026-03-05T19:56:17.706336","MEAN_MOTION":14.29964205,"ECCENTRICITY":0.0001255,"INCLINATION":98.582,"RA_OF_ASC_NODE":73.2264,"ARG_OF_PERICENTER":94.7529,"MEAN_ANOMALY":265.3797,"EPHEMERIS_TYPE":0,"CLASSIFICATION_TYPE":"U","NORAD_CAT_ID":32382,"ELEMENT_SET_NO":999,"REV_AT_EPOCH":95118,"BSTAR":5.0952e-5,"MEAN_MOTION_DOT":8.8e-7,"MEAN_MOTION_DDOT":0},{"OBJECT_NAME":"CARTOSAT-2A","OBJECT_ID":"2008-021A","EPOCH":"2026-03-05T17:59:48.608160","MEAN_MOTION":14.79091097,"ECCENTRICITY":0.0013277,"INCLINATION":97.7782,"RA_OF_ASC_NODE":116.9277,"ARG_OF_PERICENTER":88.0064,"MEAN_ANOMALY":272.2668,"EPHEMERIS_TYPE":0,"CLASSIFICATION_TYPE":"U","NORAD_CAT_ID":32783,"ELEMENT_SET_NO":999,"REV_AT_EPOCH":96351,"BSTAR":0.00012227,"MEAN_MOTION_DOT":8.56e-6,"MEAN_MOTION_DDOT":0},{"OBJECT_NAME":"HUANJING 1A (HJ-1A)","OBJECT_ID":"2008-041A","EPOCH":"2026-03-05T18:59:16.517760","MEAN_MOTION":14.83705464,"ECCENTRICITY":0.0020568,"INCLINATION":97.6628,"RA_OF_ASC_NODE":54.6825,"ARG_OF_PERICENTER":115.6283,"MEAN_ANOMALY":244.7059,"EPHEMERIS_TYPE":0,"CLASSIFICATION_TYPE":"U","NORAD_CAT_ID":33320,"ELEMENT_SET_NO":999,"REV_AT_EPOCH":94307,"BSTAR":0.00036229,"MEAN_MOTION_DOT":2.955e-5,"MEAN_MOTION_DDOT":0},{"OBJECT_NAME":"HUANJING 1B (HJ-1B)","OBJECT_ID":"2008-041B","EPOCH":"2026-03-05T18:47:16.632096","MEAN_MOTION":14.83088945,"ECCENTRICITY":0.0036789,"INCLINATION":97.6472,"RA_OF_ASC_NODE":58.1482,"ARG_OF_PERICENTER":160.4737,"MEAN_ANOMALY":199.7896,"EPHEMERIS_TYPE":0,"CLASSIFICATION_TYPE":"U","NORAD_CAT_ID":33321,"ELEMENT_SET_NO":999,"REV_AT_EPOCH":94308,"BSTAR":0.00013726,"MEAN_MOTION_DOT":1.079e-5,"MEAN_MOTION_DDOT":0},{"OBJECT_NAME":"GEOEYE 1","OBJECT_ID":"2008-042A","EPOCH":"2026-03-05T17:23:22.936992","MEAN_MOTION":14.64761639,"ECCENTRICITY":0.0004233,"INCLINATION":98.1213,"RA_OF_ASC_NODE":139.9634,"ARG_OF_PERICENTER":38.9862,"MEAN_ANOMALY":321.1645,"EPHEMERIS_TYPE":0,"CLASSIFICATION_TYPE":"U","NORAD_CAT_ID":33331,"ELEMENT_SET_NO":999,"REV_AT_EPOCH":93500,"BSTAR":0.00015624,"MEAN_MOTION_DOT":7.85e-6,"MEAN_MOTION_DDOT":0},{"OBJECT_NAME":"THEOS","OBJECT_ID":"2008-049A","EPOCH":"2026-03-05T18:00:46.311264","MEAN_MOTION":14.20115661,"ECCENTRICITY":0.0001055,"INCLINATION":98.5709,"RA_OF_ASC_NODE":125.3348,"ARG_OF_PERICENTER":88.2677,"MEAN_ANOMALY":271.8621,"EPHEMERIS_TYPE":0,"CLASSIFICATION_TYPE":"U","NORAD_CAT_ID":33396,"ELEMENT_SET_NO":999,"REV_AT_EPOCH":90328,"BSTAR":-4.2489e-5,"MEAN_MOTION_DOT":-1.33e-6,"MEAN_MOTION_DDOT":0},{"OBJECT_NAME":"COSMO-SKYMED 3","OBJECT_ID":"2008-054A","EPOCH":"2026-03-05T17:36:29.814624","MEAN_MOTION":15.06203864,"ECCENTRICITY":0.0014579,"INCLINATION":97.8421,"RA_OF_ASC_NODE":281.5529,"ARG_OF_PERICENTER":256.5272,"MEAN_ANOMALY":103.433,"EPHEMERIS_TYPE":0,"CLASSIFICATION_TYPE":"U","NORAD_CAT_ID":33412,"ELEMENT_SET_NO":999,"REV_AT_EPOCH":94136,"BSTAR":0.00031822,"MEAN_MOTION_DOT":4.609e-5,"MEAN_MOTION_DDOT":0},{"OBJECT_NAME":"YAOGAN-4","OBJECT_ID":"2008-061A","EPOCH":"2026-03-05T17:44:14.866080","MEAN_MOTION":14.82964247,"ECCENTRICITY":0.0015548,"INCLINATION":97.9247,"RA_OF_ASC_NODE":359.0702,"ARG_OF_PERICENTER":51.2045,"MEAN_ANOMALY":309.0555,"EPHEMERIS_TYPE":0,"CLASSIFICATION_TYPE":"U","NORAD_CAT_ID":33446,"ELEMENT_SET_NO":999,"REV_AT_EPOCH":93033,"BSTAR":0.00025484,"MEAN_MOTION_DOT":2.02e-5,"MEAN_MOTION_DDOT":0},{"OBJECT_NAME":"GOSAT (IBUKI)","OBJECT_ID":"2009-002A","EPOCH":"2026-03-05T18:35:08.205792","MEAN_MOTION":14.67546687,"ECCENTRICITY":0.0001382,"INCLINATION":98.0764,"RA_OF_ASC_NODE":177.2218,"ARG_OF_PERICENTER":84.0208,"MEAN_ANOMALY":276.1154,"EPHEMERIS_TYPE":0,"CLASSIFICATION_TYPE":"U","NORAD_CAT_ID":33492,"ELEMENT_SET_NO":999,"REV_AT_EPOCH":91629,"BSTAR":8.4413e-5,"MEAN_MOTION_DOT":4.31e-6,"MEAN_MOTION_DDOT":0},{"OBJECT_NAME":"DEIMOS-1","OBJECT_ID":"2009-041A","EPOCH":"2026-03-05T17:54:24.286752","MEAN_MOTION":14.75108707,"ECCENTRICITY":0.0002066,"INCLINATION":97.7246,"RA_OF_ASC_NODE":226.5367,"ARG_OF_PERICENTER":123.3932,"MEAN_ANOMALY":236.7475,"EPHEMERIS_TYPE":0,"CLASSIFICATION_TYPE":"U","NORAD_CAT_ID":35681,"ELEMENT_SET_NO":999,"REV_AT_EPOCH":89163,"BSTAR":0.00018526,"MEAN_MOTION_DOT":1.202e-5,"MEAN_MOTION_DDOT":0},{"OBJECT_NAME":"DUBAISAT-1","OBJECT_ID":"2009-041B","EPOCH":"2026-03-05T07:10:31.664640","MEAN_MOTION":14.74891955,"ECCENTRICITY":0.0011325,"INCLINATION":97.9866,"RA_OF_ASC_NODE":198.8101,"ARG_OF_PERICENTER":49.4275,"MEAN_ANOMALY":310.7918,"EPHEMERIS_TYPE":0,"CLASSIFICATION_TYPE":"U","NORAD_CAT_ID":35682,"ELEMENT_SET_NO":999,"REV_AT_EPOCH":88978,"BSTAR":0.00026898,"MEAN_MOTION_DOT":1.756e-5,"MEAN_MOTION_DDOT":0},{"OBJECT_NAME":"OCEANSAT-2","OBJECT_ID":"2009-051A","EPOCH":"2026-03-05T18:12:39.952800","MEAN_MOTION":13.99636288,"ECCENTRICITY":0.0017066,"INCLINATION":98.2273,"RA_OF_ASC_NODE":61.9663,"ARG_OF_PERICENTER":162.9543,"MEAN_ANOMALY":197.22,"EPHEMERIS_TYPE":0,"CLASSIFICATION_TYPE":"U","NORAD_CAT_ID":35931,"ELEMENT_SET_NO":999,"REV_AT_EPOCH":86486,"BSTAR":8.2917e-5,"MEAN_MOTION_DOT":8.4e-7,"MEAN_MOTION_DDOT":0},{"OBJECT_NAME":"WORLDVIEW-2 (WV-2)","OBJECT_ID":"2009-055A","EPOCH":"2026-03-05T18:15:04.064544","MEAN_MOTION":14.37908709,"ECCENTRICITY":0.0004838,"INCLINATION":98.47,"RA_OF_ASC_NODE":139.682,"ARG_OF_PERICENTER":155.5533,"MEAN_ANOMALY":204.5885,"EPHEMERIS_TYPE":0,"CLASSIFICATION_TYPE":"U","NORAD_CAT_ID":35946,"ELEMENT_SET_NO":999,"REV_AT_EPOCH":86078,"BSTAR":8.8134e-5,"MEAN_MOTION_DOT":2.23e-6,"MEAN_MOTION_DDOT":0}]
